STARLINK-33560          
1 62282U 24237R   26068.43907692  .00027765  00000+0  10138-2 0  9991
2 62282  42.9963 217.7655 0000998 260.4585  99.6154 15.27609265 71065
TEVEL2-6                
1 63215U 25052F   26068.64958975  .00021046  00000+0  70909-3 0  9996
2 63215  97.4016 325.0381 0004769  95.6604 264.5181 15.30760889 54861
